[{"OBJECT_NAME":"ICESAT-2","OBJECT_ID":"2018-070A","EPOCH":"2026-03-09T22:54:12.225888","MEAN_MOTION":15.28328617,"ECCENTRICITY":0.00038245,"INCLINATION":91.9993,"RA_OF_ASC_NODE":264.2397,"ARG_OF_PERICENTER":123.8941,"MEAN_ANOMALY":236.2673,"EPHEMERIS_TYPE":0,"CLASSIFICATION_TYPE":"U","NORAD_CAT_ID":43613,"ELEMENT_SET_NO":999,"REV_AT_EPOCH":41730,"BSTAR":0.00014022643,"MEAN_MOTION_DOT":3.87e-5,"MEAN_MOTION_DDOT":0},{"OBJECT_NAME":"STARLINK-34168","OBJECT_ID":"2025-107R","EPOCH":"2026-03-09T10:14:26.842848","MEAN_MOTION":15.27585044,"ECCENTRICITY":0.00013038,"INCLINATION":43.002,"RA_OF_ASC_NODE":202.7402,"ARG_OF_PERICENTER":242.1444,"MEAN_ANOMALY":117.9276,"EPHEMERIS_TYPE":0,"CLASSIFICATION_TYPE":"U","NORAD_CAT_ID":64079,"ELEMENT_SET_NO":999,"REV_AT_EPOCH":4608,"BSTAR":0.0014423204,"MEAN_MOTION_DOT":0.00039647,"MEAN_MOTION_DDOT":0}]
